{"type": "FeatureCollection", "features": [ {"type": "Feature", "properties": {"norad_id": 31339, "name": "FENGYUN 1C DEB", "group": "fengyun-1c-debris", "lat": 70.3921945812216, "lon": -137.82482694403453, "alt_km": 898.6335979527257, "timestamp": "2025-12-26T09:30:53.920018+00:00", "meta": {"OBJECT_NAME": "FENGYUN 1C DEB", "OBJECT_ID": "1999-025BQT", "EPOCH": "2025-12-22T18:16:56.374176", "MEAN_MOTION": 14.12202748, "ECCENTRICITY": 0.0074249, "INCLINATION": 98.713, "RA_OF_ASC_NODE": 13.1448, "ARG_OF_PERICENTER": 296.4743, "MEAN_ANOMALY": 62.8826, "EPHEMERIS_TYPE": 0, "CLASSIFICATION_TYPE": "U", "NORAD_CAT_ID": 31339, "ELEMENT_SET_NO": 999, "REV_AT_EPOCH": 95819, "BSTAR": 0.0008032206, "MEAN_MOTION_DOT": 1.471e-05, "MEAN_MOTION_DDOT": 0}, "tle": {"line1": "1 31339U 99025BQT 25356.76176359  .00001471  00000+0  80322-3 0  9999", "line2": "2 31339  98.7130  13.1448 0074249 296.4743  62.8826 14.12202748958196"}}, "geometry": {"type": "Point", "coordinates": [-137.82482694403453, 70.3921945812216]}}, {"type": "Feature", "properties": {"norad_id": 31341, "name": "FENGYUN 1C DEB", "group": "fengyun-1c-debris", "lat": -25.201075766400155, "lon": 48.08857052542443, "alt_km": 687.0020322508781, "timestamp": "2025-12-26T09:30:53.920028+00:00", "meta": {"OBJECT_NAME": "FENGYUN 1C DEB", "OBJECT_ID": "1999-025BQV", "EPOCH": "2025-12-21T09:06:25.877088", "MEAN_MOTION": 14.53401533, "ECCENTRICITY": 0.00529379, "INCLINATION": 99.5547, "RA_OF_ASC_NODE": 37.8287, "ARG_OF_PERICENTER": 320.7191, "MEAN_ANOMALY": 57.8941, "EPHEMERIS_TYPE": 0, "CLASSIFICATION_TYPE": "U", "NORAD_CAT_ID": 31341, "ELEMENT_SET_NO": 999, "REV_AT_EPOCH": 97744, "BSTAR": 0.00093378825, "MEAN_MOTION_DOT": 3.901e-05, "MEAN_MOTION_DDOT": 0}, "tle": {"line1": "1 31341U 99025BQV 25355.37946617  .00003901  00000+0  93379-3 0  9996", "line2": "2 31341  99.5547  37.8287 0052937 320.7191  57.8941 14.53401533977441"}}, "geometry": {"type": "Point", "coordinates": [48.08857052542443, -25.201075766400155]}}, {"type": "Feature", "properties": {"norad_id": 31342, "name": "FENGYUN 1C DEB", "group": "fengyun-1c-debris", "lat": 3.758046284165203, "lon": -43.41951097264886, "alt_km": 851.3446270234799, "timestamp": "2025-12-26T09:30:53.920038+00:00", "meta": {"OBJECT_NAME": "FENGYUN 1C DEB", "OBJECT_ID": "1999-025BQW", "EPOCH": "2025-12-25T15:06:42.465888", "MEAN_MOTION": 14.36778501, "ECCENTRICITY": 0.0111978, "INCLINATION": 98.9383, "RA_OF_ASC_NODE": 316.3769, "ARG_OF_PERICENTER": 181.3325, "MEAN_ANOMALY": 178.7578, "EPHEMERIS_TYPE": 0, "CLASSIFICATION_TYPE": "U", "NORAD_CAT_ID": 31342, "ELEMENT_SET_NO": 999, "REV_AT_EPOCH": 98076, "BSTAR": 0.00011788, "MEAN_MOTION_DOT": 3.24e-06, "MEAN_MOTION_DDOT": 0}, "tle": {"line1": "1 31342U 99025BQW 25359.62965817  .00000324  00000+0  11788-3 0  9992", "line2": "2 31342  98.9383 316.3769 0111978 181.3325 178.7578 14.36778501980765"}}, "geometry": {"type": "Point", "coordinates": [-43.41951097264886, 3.758046284165203]}}, {"type": "Feature", "properties": {"norad_id": 31346, "name": "FENGYUN 1C DEB", "group": "fengyun-1c-debris", "lat": -57.70369579963347, "lon": 135.22371252911108, "alt_km": 540.0142263264506, "timestamp": "2025-12-26T09:30:53.920048+00:00", "meta": {"OBJECT_NAME": "FENGYUN 1C DEB", "OBJECT_ID": "1999-025BRA", "EPOCH": "2025-12-22T15:28:43.197024", "MEAN_MOTION": 15.11348724, "ECCENTRICITY": 0.0108825, "INCLINATION": 98.867, "RA_OF_ASC_NODE": 325.1755, "ARG_OF_PERICENTER": 342.8884, "MEAN_ANOMALY": 16.8683, "EPHEMERIS_TYPE": 0, "CLASSIFICATION_TYPE": "U", "NORAD_CAT_ID": 31346, "ELEMENT_SET_NO": 999, "REV_AT_EPOCH": 99645, "BSTAR": 0.0012559476, "MEAN_MOTION_DOT": 0.00024407, "MEAN_MOTION_DDOT": 0}, "tle": {"line1": "1 31346U 99025BRA 25356.64494441  .00024407  00000+0  12559-2 0  9999", "line2": "2 31346  98.8670 325.1755 0108825 342.8884  16.8683 15.11348724996457"}}, "geometry": {"type": "Point", "coordinates": [135.22371252911108, -57.70369579963347]}}, {"type": "Feature", "properties": {"norad_id": 31348, "name": "FENGYUN 1C DEB", "group": "fengyun-1c-debris", "lat": 72.11749372553223, "lon": -77.74589769236516, "alt_km": 753.5295242390757, "timestamp": "2025-12-26T09:30:53.920058+00:00", "meta": {"OBJECT_NAME": "FENGYUN 1C DEB", "OBJECT_ID": "1999-025BRC", "EPOCH": "2025-12-20T16:26:32.079264", "MEAN_MOTION": 14.34088322, "ECCENTRICITY": 0.00363564, "INCLINATION": 99.1201, "RA_OF_ASC_NODE": 306.0927, "ARG_OF_PERICENTER": 43.3211, "MEAN_ANOMALY": 81.157, "EPHEMERIS_TYPE": 0, "CLASSIFICATION_TYPE": "U", "NORAD_CAT_ID": 31348, "ELEMENT_SET_NO": 999, "REV_AT_EPOCH": 96363, "BSTAR": 0.00079714977, "MEAN_MOTION_DOT": 2.198e-05, "MEAN_MOTION_DDOT": 0}, "tle": {"line1": "1 31348U 99025BRC 25354.68509351  .00002198  00000+0  79715-3 0  9991", "line2": "2 31348  99.1201 306.0927 0036356  43.3211  81.1570 14.34088322963631"}}, "geometry": {"type": "Point", "coordinates": [-77.74589769236516, 72.11749372553223]}}, {"type": "Feature", "properties": {"norad_id": 31350, "name": "FENGYUN 1C DEB", "group": "fengyun-1c-debris", "lat": 13.325516202931443, "lon": 170.78080390895508, "alt_km": 761.3482782927767, "timestamp": "2025-12-26T09:30:53.920068+00:00", "meta": {"OBJECT_NAME": "FENGYUN 1C DEB", "OBJECT_ID": "1999-025BRE", "EPOCH": "2025-12-20T17:53:36.412512", "MEAN_MOTION": 14.34870807, "ECCENTRICITY": 0.00669241, "INCLINATION": 98.9598, "RA_OF_ASC_NODE": 167.0621, "ARG_OF_PERICENTER": 102.0687, "MEAN_ANOMALY": 258.8007, "EPHEMERIS_TYPE": 0, "CLASSIFICATION_TYPE": "U", "NORAD_CAT_ID": 31350, "ELEMENT_SET_NO": 999, "REV_AT_EPOCH": 70368, "BSTAR": 0.00033722959, "MEAN_MOTION_DOT": 9.36e-06, "MEAN_MOTION_DDOT": 0}, "tle": {"line1": "1 31350U 99025BRE 25354.74556033  .00000936  00000+0  33723-3 0  9997", "line2": "2 31350  98.9598 167.0621 0066924 102.0687 258.8007 14.34870807703682"}}, "geometry": {"type": "Point", "coordinates": [170.78080390895508, 13.325516202931443]}}, {"type": "Feature", "properties": {"norad_id": 31351, "name": "FENGYUN 1C DEB", "group": "fengyun-1c-debris", "lat": -49.295830724176675, "lon": -2.8322164751770393, "alt_km": 845.559352731012, "timestamp": "2025-12-26T09:30:53.920078+00:00", "meta": {"OBJECT_NAME": "FENGYUN 1C DEB", "OBJECT_ID": "1999-025BRF", "EPOCH": "2025-12-22T10:10:17.163264", "MEAN_MOTION": 14.06949106, "ECCENTRICITY": 0.00933431, "INCLINATION": 98.7956, "RA_OF_ASC_NODE": 342.9353, "ARG_OF_PERICENTER": 24.2832, "MEAN_ANOMALY": 336.2694, "EPHEMERIS_TYPE": 0, "CLASSIFICATION_TYPE": "U", "NORAD_CAT_ID": 31351, "ELEMENT_SET_NO": 999, "REV_AT_EPOCH": 61511, "BSTAR": 0.0002975243, "MEAN_MOTION_DOT": 4.73e-06, "MEAN_MOTION_DDOT": 0}, "tle": {"line1": "1 31351U 99025BRF 25356.42380976  .00000473  00000+0  29752-3 0  9999", "line2": "2 31351  98.7956 342.9353 0093343  24.2832 336.2694 14.06949106615118"}}, "geometry": {"type": "Point", "coordinates": [-2.8322164751770393, -49.295830724176675]}}, {"type": "Feature", "properties": {"norad_id": 31353, "name": "FENGYUN 1C DEB", "group": "fengyun-1c-debris", "lat": -30.007687016319604, "lon": 100.87130174010443, "alt_km": 962.1003003321848, "timestamp": "2025-12-26T09:30:53.920089+00:00", "meta": {"OBJECT_NAME": "FENGYUN 1C DEB", "OBJECT_ID": "1999-025BRH", "EPOCH": "2025-12-23T01:36:34.682976", "MEAN_MOTION": 14.29884822, "ECCENTRICITY": 0.02291012, "INCLINATION": 98.9918, "RA_OF_ASC_NODE": 282.6778, "ARG_OF_PERICENTER": 37.6194, "MEAN_ANOMALY": 324.0767, "EPHEMERIS_TYPE": 0, "CLASSIFICATION_TYPE": "U", "NORAD_CAT_ID": 31353, "ELEMENT_SET_NO": 999, "REV_AT_EPOCH": 96732, "BSTAR": 0.000644123, "MEAN_MOTION_DOT": 2.152e-05, "MEAN_MOTION_DDOT": 0}, "tle": {"line1": "1 31353U 99025BRH 25357.06706809  .00002152  00000+0  64412-3 0  9997", "line2": "2 31353  98.9918 282.6778 0229101  37.6194 324.0767 14.29884822967320"}}, "geometry": {"type": "Point", "coordinates": [100.87130174010443, -30.007687016319604]}}, {"type": "Feature", "properties": {"norad_id": 31357, "name": "FENGYUN 1C DEB", "group": "fengyun-1c-debris", "lat": -71.39832931213083, "lon": 57.75127698429131, "alt_km": 808.3933053405517, "timestamp": "2025-12-26T09:30:53.920098+00:00", "meta": {"OBJECT_NAME": "FENGYUN 1C DEB", "OBJECT_ID": "1999-025BRM", "EPOCH": "2025-12-26T01:31:38.236800", "MEAN_MOTION": 14.18529204, "ECCENTRICITY": 0.0048848, "INCLINATION": 98.6096, "RA_OF_ASC_NODE": 30.6756, "ARG_OF_PERICENTER": 253.4162, "MEAN_ANOMALY": 134.2004, "EPHEMERIS_TYPE": 0, "CLASSIFICATION_TYPE": "U", "NORAD_CAT_ID": 31357, "ELEMENT_SET_NO": 999, "REV_AT_EPOCH": 96893, "BSTAR": 4.1615e-05, "MEAN_MOTION_DOT": 4.4e-07, "MEAN_MOTION_DDOT": 0}, "tle": {"line1": "1 31357U 99025BRM 25360.06363700  .00000044  00000+0  41615-4 0  9993", "line2": "2 31357  98.6096  30.6756 0048848 253.4162 134.2004 14.18529204968936"}}, "geometry": {"type": "Point", "coordinates": [57.75127698429131, -71.39832931213083]}}, {"type": "Feature", "properties": {"norad_id": 31358, "name": "FENGYUN 1C DEB", "group": "fengyun-1c-debris", "lat": 10.622933886412932, "lon": 117.63429506144799, "alt_km": 500.24166050184795, "timestamp": "2025-12-26T09:30:53.920108+00:00", "meta": {"OBJECT_NAME": "FENGYUN 1C DEB", "OBJECT_ID": "1999-025BRN", "EPOCH": "2025-12-24T18:55:57.832320", "MEAN_MOTION": 15.22563646, "ECCENTRICITY": 0.00436516, "INCLINATION": 98.9084, "RA_OF_ASC_NODE": 294.0441, "ARG_OF_PERICENTER": 79.5177, "MEAN_ANOMALY": 281.0969, "EPHEMERIS_TYPE": 0, "CLASSIFICATION_TYPE": "U", "NORAD_CAT_ID": 31358, "ELEMENT_SET_NO": 999, "REV_AT_EPOCH": 97753, "BSTAR": 0.0082771119, "MEAN_MOTION_DOT": 0.00202216, "MEAN_MOTION_DDOT": 0}, "tle": {"line1": "1 31358U 99025BRN 25358.78886380  .00202216  00000+0  82771-2 0  9995", "line2": "2 31358  98.9084 294.0441 0043651  79.5177 281.0969 15.22563646977535"}}, "geometry": {"type": "Point", "coordinates": [117.63429506144799, 10.622933886412932]}}]}